ONEWEB-0387             
1 49313U 21090AL  24078.46606778  .00000015  00000+0  50256-5 0  9995
2 49313  87.9130  77.8295 0002175  96.3466 263.7915 13.20769519121489
ONEWEB-0388             
1 49314U 21090AM  24078.46359969 -.00000031  00000+0 -10924-3 0  9999
2 49314  87.9112 108.3448 0002080  90.2885 269.8486 13.19726186118165
ONEWEB-0389             
1 50469U 21132A   24078.25288336  .00000081  00000+0  17503-3 0  9998
2 50469  87.9260 169.1863 0002354 114.1071 246.0307 13.17651623109974
ONEWEB-0390             
1 50470U 21132B   24078.33040406  .00000055  00000+0  10895-3 0  9991
2 50470  87.9259 169.1789 0001903 117.1909 242.9417 13.17647363109987
ONEWEB-0391             
1 50471U 21132C   24078.25605021  .00000091  00000+0  20131-3 0  9997
2 50471  87.9268 169.1693 0002410 108.8406 251.2987 13.17648062109976
ONEWEB-0392             
1 50472U 21132D   24078.28610360 -.00000168  00000+0 -46579-3 0  9994
2 50472  87.9251 169.1772 0002227 112.0659 248.0709 13.17647720110013
ONEWEB-0393             
1 50473U 21132E   24078.71496079 -.00000657  00000+0 -17248-2 0  9995
2 50473  87.9263 169.0596 0002215 114.1618 245.9746 13.17665363111353
ONEWEB-0394             
1 50474U 21132F   24078.18997571 -.00000189  00000+0 -51168-3 0  9990
2 50474  87.9186 138.8803 0002162 100.3459 259.7917 13.18685527113398
ONEWEB-0395             
1 50475U 21132G   24078.36676624  .00000431  00000+0  11796-2 0  9994
2 50475  87.9037 184.3051 0002044 113.1767 246.9577 13.11415755108131
ONEWEB-0396             
1 50476U 21132H   24078.18365476 -.00000226  00000+0 -60648-3 0  9990
2 50476  87.9190 138.8751 0002374  98.5141 261.6261 13.18684931113435
ONEWEB-0397             
1 50477U 21132J   24078.19788456 -.00000192  00000+0 -52093-3 0  9996
2 50477  87.9192 138.8735 0002254 100.9313 259.2072 13.18685384113410
ONEWEB-0398             
1 50478U 21132K   24078.33431381 -.00000105  00000+0 -33140-3 0  9991
2 50478  87.9036 184.2946 0001891 121.4872 238.6440 13.11418433108024
ONEWEB-0399             
1 50479U 21132L   24078.85375203 -.00000594  00000+0 -17119-2 0  9998
2 50479  87.9036 184.2068 0002115  98.7627 261.3741 13.11416033109363
ONEWEB-0400             
1 50480U 21132M   24078.25320332  .00000063  00000+0  12652-3 0  9994
2 50480  87.9187 138.8692 0001868 107.2343 252.8993 13.18687591113416
ONEWEB-0401             
1 50481U 21132N   24078.22000746 -.00000629  00000+0 -16295-2 0  9992
2 50481  87.9185 138.8744 0002032  92.0459 268.0906 13.18687388113413
ONEWEB-0402             
1 50482U 21132P   24078.18523381  .00000077  00000+0  16358-3 0  9999
2 50482  87.9186 138.8781 0001808  82.4747 277.6591 13.18684018113434
ONEWEB-0403             
1 50483U 21132Q   24078.20896599  .00000074  00000+0  15601-3 0  9994
2 50483  87.9188 138.8794 0002285  97.2008 262.9384 13.18684155113399
ONEWEB-0404             
1 50484U 21132R   24078.30184099  .00000009  00000+0 -10130-4 0  9993
2 50484  87.9043 184.2809 0002389 108.8083 251.3304 13.11417181108102
ONEWEB-0405             
1 50485U 21132S   24078.60412978  .00000021  00000+0  19282-4 0  9997
2 50485  87.9187 138.7904 0002186  88.4740 271.6642 13.18688006115134
ONEWEB-0406             
1 50486U 21132T   24078.21370814  .00000002  00000+0 -28529-4 0  9991
2 50486  87.9190 138.8770 0002315 108.6995 251.4389 13.18685375113422
ONEWEB-0407             
1 50487U 21132U   24078.20737389  .00000054  00000+0  10296-3 0  9992
2 50487  87.9187 138.8845 0002152  95.8229 264.3149 13.18684109113362
ONEWEB-0409             
1 50488U 21132V   24078.37650079  .00000005  00000+0 -20551-4 0  9994
2 50488  87.9033 184.2707 0002364 117.2903 242.8466 13.11413927108007
ONEWEB-0412             
1 50489U 21132W   24078.19631666  .00000063  00000+0  12729-3 0  9996
2 50489  87.9190 138.8817 0002283  86.8788 273.2606 13.18685900113459
ONEWEB-0413             
1 50490U 21132X   24078.20106549  .00000067  00000+0  13828-3 0  9992
2 50490  87.9192 138.8946 0001980  85.9962 274.1396 13.18686571113397
ONEWEB-0414             
1 50491U 21132Y   24078.18681468 -.00000081  00000+0 -23753-3 0  9994
2 50491  87.9186 138.8792 0002375  94.9549 265.1854 13.18685498113420
ONEWEB-0417             
1 50492U 21132Z   24078.19471770  .00000036  00000+0  59197-4 0  9999
2 50492  87.9193 138.8742 0002237 107.6288 252.5088 13.18683811113407
ONEWEB-0418             
1 50493U 21132AA  24078.20509093  .00000008  00000+0 -12984-4 0  9995
2 50493  87.9189 138.8790 0002484 109.8717 250.2683 13.19206417113467
ONEWEB-0419             
1 50494U 21132AB  24078.60096934 -.00000249  00000+0 -66458-3 0  9997
2 50494  87.9184 138.8208 0002093 111.1164 249.0192 13.18685487114723
ONEWEB-0420             
1 50495U 21132AC  24078.18841268  .00000177  00000+0  41629-3 0  9990
2 50495  87.9185 138.9109 0001789  91.0820 269.0517 13.18686666113375
ONEWEB-0421             
1 50496U 21132AD  24078.25794731  .00000068  00000+0  13872-3 0  9999
2 50496  87.9194 138.8559 0002339  91.1681 268.9720 13.18688785113426
ONEWEB-0424             
1 50497U 21132AE  24078.59622689 -.00000240  00000+0 -64234-3 0  9991
2 50497  87.9187 138.7994 0001856 117.1839 242.9483 13.18685907113496
ONEWEB-0426             
1 50498U 21132AF  24078.25478540  .00000020  00000+0  16915-4 0  9998
2 50498  87.9183 138.8877 0002706 102.3036 257.8399 13.18688878113394
ONEWEB-0427             
1 50499U 21132AG  24078.59465815  .00000105  00000+0  23426-3 0  9995
2 50499  87.9186 138.7966 0002276 105.3813 254.7571 13.18684595114766
ONEWEB-0429             
1 50500U 21132AH  24078.20264008  .00000083  00000+0  17669-3 0  9994
2 50500  87.9193 138.8747 0001984  98.2792 261.8565 13.18684966113387
ONEWEB-0430             
1 50501U 21132AJ  24078.19157111  .00000083  00000+0  17714-3 0  9990
2 50501  87.9188 138.8848 0001633 111.8498 248.2808 13.18685246113426
ONEWEB-0432             
1 50502U 21132AK  24078.22317677 -.00000002  00000+0 -36693-4 0  9991
2 50502  87.9188 138.8724 0001862  99.9418 260.1924 13.18684012113389
ONEWEB-0440             
1 50503U 21132AL  24078.21052592  .00000031  00000+0  45886-4 0  9997
2 50503  87.9189 138.8607 0002228  84.3891 275.7495 13.18688299113376
ONEWEB-0450             
1 50504U 21132AM  24078.20427350 -.00003855  00000+0 -98210-2 0  9991
2 50504  87.9197 138.8916 0001710 101.2840 258.8485 13.18645614113406
ONEWEB-0410             
1 51622U 22012A   24078.27187005  .00000032  00000+0  48981-4 0  9992
2 51622  87.9254 169.1683 0003126 108.4161 251.7311 13.17647265105592
ONEWEB-0411             
1 51623U 22012B   24078.39914824  .00000700  00000+0  19695-2 0  9993
2 51623  87.8985 199.3286 0001656 116.1884 243.9414 13.10372487101790
ONEWEB-0415             
1 51624U 22012C   24078.39591763  .00000630  00000+0  17673-2 0  9993
2 51624  87.8980 199.3555 0001669 118.7393 241.3903 13.10375161101799
ONEWEB-0416             
1 51625U 22012D   24078.40727054  .00000627  00000+0  17609-2 0  9995
2 51625  87.8983 199.3428 0001853 106.3537 253.7794 13.10371292101831
ONEWEB-0422             
1 51626U 22012E   24078.28136534  .00000058  00000+0  11628-3 0  9993
2 51626  87.9257 169.1645 0001527  82.9403 277.1903 13.17647533105705
ONEWEB-0423             
1 51627U 22012F   24078.27504285  .00000018  00000+0  12974-4 0  9997
2 51627  87.9259 169.1650 0001988 103.3597 256.7756 13.17647927105590
ONEWEB-0425             
1 51628U 22012G   24078.72244083  .00000359  00000+0  99128-3 0  9998
2 51628  87.8979 199.2672 0002151  97.8199 262.3172 13.10370933103164
ONEWEB-0428             
1 51629U 22012H   24078.39752367  .00000650  00000+0  18251-2 0  9992
2 51629  87.8984 199.3452 0001370 100.9349 259.1933 13.10373501101793
ONEWEB-0431             
1 51630U 22012J   24078.36648512 -.00000600  00000+0 -17555-2 0  9990
2 51630  87.8980 199.3549 0001137 124.3497 235.7738 13.10376452101840
ONEWEB-0434             
1 51631U 22012K   24078.34389348 -.00000005  00000+0 -51256-4 0  9995
2 51631  87.8981 199.3674 0001628  96.2601 263.8712 13.10369501101829
ONEWEB-0435             
1 51632U 22012L   24078.35200875 -.00000361  00000+0 -10700-2 0  9996
2 51632  87.8982 199.3561 0001422  96.5262 263.6028 13.10370206101815
ONEWEB-0436             
1 51633U 22012M   24078.26712143  .00000092  00000+0  20437-3 0  9991
2 51633  87.9255 169.1752 0001799  98.6028 261.5307 13.17647234105576
ONEWEB-0438             
1 51634U 22012N   24078.33578118  .00000408  00000+0  11312-2 0  9994
2 51634  87.8982 199.3599 0001929 100.9676 259.1668 13.10370398101844
ONEWEB-0439             
1 51635U 22012P   24078.41538423  .00000250  00000+0  68034-3 0  9998
2 51635  87.8982 199.3283 0001691 104.8245 255.3070 13.10370047101831
ONEWEB-0442             
1 51636U 22012Q   24078.71404722  .00000110  00000+0  24957-3 0  9997
2 51636  87.9259 169.1183 0002651 115.2726 244.8680 13.17648907106915
ONEWEB-0443             
1 51637U 22012R   24078.27819398 -.00000142  00000+0 -39936-3 0  9998
2 51637  87.9259 169.2102 0001951  90.9402 269.1953 13.17648272105614
ONEWEB-0444             
1 51638U 22012S   24078.40564475  .00000595  00000+0  16684-2 0  9991
2 51638  87.8979 199.3569 0001692  99.5671 260.5648 13.10371555101846
ONEWEB-0445             
1 51639U 22012T   24078.35039105 -.00000252  00000+0 -75900-3 0  9992
2 51639  87.8971 199.3439 0001940 114.4364 245.6966 13.10370238101841
ONEWEB-0446             
1 51640U 22012U   24078.40403833  .00000680  00000+0  19110-2 0  9996
2 51640  87.8983 199.3494 0001802 116.3727 243.7586 13.10374582101830
ONEWEB-0448             
1 51641U 22012V   24078.40889124  .00000536  00000+0  14996-2 0  9995
2 51641  87.8982 199.3495 0001744  98.4534 261.6791 13.10370787101809
ONEWEB-0449             
1 51642U 22012W   24078.41376307  .00000294  00000+0  80496-3 0  9991
2 51642  87.8976 199.3486 0002036 102.9420 257.1934 13.10369395101816
